[{"OBJECT_NAME":"NOAA 1","OBJECT_ID":"1970-106A","EPOCH":"2026-04-04T02:19:55.518240","MEAN_MOTION":12.54049723,"ECCENTRICITY":0.00320546,"INCLINATION":101.3458,"RA_OF_ASC_NODE":132.0504,"ARG_OF_PERICENTER":131.4764,"MEAN_ANOMALY":291.4511,"EPHEMERIS_TYPE":0,"CLASSIFICATION_TYPE":"U","NORAD_CAT_ID":4793,"ELEMENT_SET_NO":999,"REV_AT_EPOCH":53140,"BSTAR":5.6231118e-5,"MEAN_MOTION_DOT":-3.3e-7,"MEAN_MOTION_DDOT":0},{"OBJECT_NAME":"NOAA 2 (ITOS-D)","OBJECT_ID":"1972-082A","EPOCH":"2026-04-04T00:49:24.016800","MEAN_MOTION":12.53212776,"ECCENTRICITY":0.0003735,"INCLINATION":102.014,"RA_OF_ASC_NODE":111.7793,"ARG_OF_PERICENTER":314.9732,"MEAN_ANOMALY":71.6341,"EPHEMERIS_TYPE":0,"CLASSIFICATION_TYPE":"U","NORAD_CAT_ID":6235,"ELEMENT_SET_NO":999,"REV_AT_EPOCH":44566,"BSTAR":0.00012570173,"MEAN_MOTION_DOT":-2.7e-7,"MEAN_MOTION_DDOT":0},{"OBJECT_NAME":"NOAA 3","OBJECT_ID":"1973-086A","EPOCH":"2026-04-03T21:58:35.852736","MEAN_MOTION":12.40392492,"ECCENTRICITY":0.00061859,"INCLINATION":102.289,"RA_OF_ASC_NODE":107.1399,"ARG_OF_PERICENTER":260.7953,"MEAN_ANOMALY":159.7835,"EPHEMERIS_TYPE":0,"CLASSIFICATION_TYPE":"U","NORAD_CAT_ID":6920,"ELEMENT_SET_NO":999,"REV_AT_EPOCH":37269,"BSTAR":5.1472672e-5,"MEAN_MOTION_DOT":-3.9e-7,"MEAN_MOTION_DDOT":0},{"OBJECT_NAME":"NOAA 4","OBJECT_ID":"1974-089A","EPOCH":"2026-04-04T00:31:51.445344","MEAN_MOTION":12.5320231,"ECCENTRICITY":0.00088391,"INCLINATION":102.006,"RA_OF_ASC_NODE":106.0253,"ARG_OF_PERICENTER":340.6538,"MEAN_ANOMALY":81.8638,"EPHEMERIS_TYPE":0,"CLASSIFICATION_TYPE":"U","NORAD_CAT_ID":7529,"ELEMENT_SET_NO":999,"REV_AT_EPOCH":35023,"BSTAR":5.2464814e-5,"MEAN_MOTION_DOT":-3.8e-7,"MEAN_MOTION_DDOT":0},{"OBJECT_NAME":"NOAA 5","OBJECT_ID":"1976-077A","EPOCH":"2026-04-04T04:56:57.257664","MEAN_MOTION":12.37829301,"ECCENTRICITY":0.00100817,"INCLINATION":102.2991,"RA_OF_ASC_NODE":79.8513,"ARG_OF_PERICENTER":114.1829,"MEAN_ANOMALY":255.9346,"EPHEMERIS_TYPE":0,"CLASSIFICATION_TYPE":"U","NORAD_CAT_ID":9057,"ELEMENT_SET_NO":999,"REV_AT_EPOCH":24532,"BSTAR":7.1574664e-5,"MEAN_MOTION_DOT":-3.7e-7,"MEAN_MOTION_DDOT":0},{"OBJECT_NAME":"TIROS N","OBJECT_ID":"1978-096A","EPOCH":"2026-04-04T01:10:20.426592","MEAN_MOTION":14.19350552,"ECCENTRICITY":0.00116378,"INCLINATION":98.4599,"RA_OF_ASC_NODE":118.4405,"ARG_OF_PERICENTER":97.2827,"MEAN_ANOMALY":262.9673,"EPHEMERIS_TYPE":0,"CLASSIFICATION_TYPE":"U","NORAD_CAT_ID":11060,"ELEMENT_SET_NO":999,"REV_AT_EPOCH":66823,"BSTAR":0.00014599759,"MEAN_MOTION_DOT":2.66e-6,"MEAN_MOTION_DDOT":0},{"OBJECT_NAME":"NOAA 6","OBJECT_ID":"1979-057A","EPOCH":"2026-04-04T01:31:34.250304","MEAN_MOTION":14.35454189,"ECCENTRICITY":0.0010965,"INCLINATION":98.5709,"RA_OF_ASC_NODE":124.0593,"ARG_OF_PERICENTER":115.6583,"MEAN_ANOMALY":244.5737,"EPHEMERIS_TYPE":0,"CLASSIFICATION_TYPE":"U","NORAD_CAT_ID":11416,"ELEMENT_SET_NO":999,"REV_AT_EPOCH":44032,"BSTAR":0.00019280177,"MEAN_MOTION_DOT":5.1e-6,"MEAN_MOTION_DDOT":0},{"OBJECT_NAME":"NOAA 7","OBJECT_ID":"1981-059A","EPOCH":"2026-04-04T05:00:11.823552","MEAN_MOTION":14.17778966,"ECCENTRICITY":0.00124363,"INCLINATION":98.801,"RA_OF_ASC_NODE":162.0369,"ARG_OF_PERICENTER":117.9636,"MEAN_ANOMALY":242.2799,"EPHEMERIS_TYPE":0,"CLASSIFICATION_TYPE":"U","NORAD_CAT_ID":12553,"ELEMENT_SET_NO":999,"REV_AT_EPOCH":31426,"BSTAR":7.0830132e-5,"MEAN_MOTION_DOT":1.0e-6,"MEAN_MOTION_DDOT":0},{"OBJECT_NAME":"NOAA 8","OBJECT_ID":"1983-022A","EPOCH":"2026-04-04T00:39:33.352704","MEAN_MOTION":14.2977756,"ECCENTRICITY":0.00158342,"INCLINATION":98.736,"RA_OF_ASC_NODE":106.9083,"ARG_OF_PERICENTER":114.0126,"MEAN_ANOMALY":246.2715,"EPHEMERIS_TYPE":0,"CLASSIFICATION_TYPE":"U","NORAD_CAT_ID":13923,"ELEMENT_SET_NO":999,"REV_AT_EPOCH":24047,"BSTAR":0.00011193735,"MEAN_MOTION_DOT":2.43e-6,"MEAN_MOTION_DDOT":0},{"OBJECT_NAME":"NOAA 9","OBJECT_ID":"1984-123A","EPOCH":"2026-04-04T01:32:51.834912","MEAN_MOTION":14.17048006,"ECCENTRICITY":0.00144122,"INCLINATION":99.1064,"RA_OF_ASC_NODE":118.9619,"ARG_OF_PERICENTER":196.0437,"MEAN_ANOMALY":222.4143,"EPHEMERIS_TYPE":0,"CLASSIFICATION_TYPE":"U","NORAD_CAT_ID":15427,"ELEMENT_SET_NO":999,"REV_AT_EPOCH":13292,"BSTAR":0.00010952188,"MEAN_MOTION_DOT":1.74e-6,"MEAN_MOTION_DDOT":0},{"OBJECT_NAME":"NOAA 10","OBJECT_ID":"1986-073A","EPOCH":"2026-04-03T22:57:29.177280","MEAN_MOTION":14.2915508,"ECCENTRICITY":0.00114422,"INCLINATION":98.7023,"RA_OF_ASC_NODE":87.3037,"ARG_OF_PERICENTER":208.7502,"MEAN_ANOMALY":205.7682,"EPHEMERIS_TYPE":0,"CLASSIFICATION_TYPE":"U","NORAD_CAT_ID":16969,"ELEMENT_SET_NO":999,"REV_AT_EPOCH":5881,"BSTAR":0.00010675164,"MEAN_MOTION_DOT":2.26e-6,"MEAN_MOTION_DDOT":0},{"OBJECT_NAME":"NOAA 11","OBJECT_ID":"1988-089A","EPOCH":"2026-04-03T20:59:10.389984","MEAN_MOTION":14.15826843,"ECCENTRICITY":0.00115793,"INCLINATION":98.6136,"RA_OF_ASC_NODE":42.0716,"ARG_OF_PERICENTER":146.6082,"MEAN_ANOMALY":213.5825,"EPHEMERIS_TYPE":0,"CLASSIFICATION_TYPE":"U","NORAD_CAT_ID":19531,"ELEMENT_SET_NO":999,"REV_AT_EPOCH":93696,"BSTAR":8.3722398e-5,"MEAN_MOTION_DOT":1.22e-6,"MEAN_MOTION_DDOT":0},{"OBJECT_NAME":"NOAA 12","OBJECT_ID":"1991-032A","EPOCH":"2026-04-04T05:03:38.350656","MEAN_MOTION":14.26726275,"ECCENTRICITY":0.00125926,"INCLINATION":98.618,"RA_OF_ASC_NODE":83.8197,"ARG_OF_PERICENTER":242.52,"MEAN_ANOMALY":117.4701,"EPHEMERIS_TYPE":0,"CLASSIFICATION_TYPE":"U","NORAD_CAT_ID":21263,"ELEMENT_SET_NO":999,"REV_AT_EPOCH":81441,"BSTAR":8.6527151e-5,"MEAN_MOTION_DOT":1.66e-6,"MEAN_MOTION_DDOT":0},{"OBJECT_NAME":"NOAA 13","OBJECT_ID":"1993-050A","EPOCH":"2026-04-04T06:31:14.229408","MEAN_MOTION":14.13645454,"ECCENTRICITY":0.00092543,"INCLINATION":98.6974,"RA_OF_ASC_NODE":41.3111,"ARG_OF_PERICENTER":347.5417,"MEAN_ANOMALY":12.5526,"EPHEMERIS_TYPE":0,"CLASSIFICATION_TYPE":"U","NORAD_CAT_ID":22739,"ELEMENT_SET_NO":999,"REV_AT_EPOCH":68293,"BSTAR":0.00012343047,"MEAN_MOTION_DOT":1.9e-6,"MEAN_MOTION_DDOT":0},{"OBJECT_NAME":"NOAA 14","OBJECT_ID":"1994-089A","EPOCH":"2026-04-04T05:09:32.292576","MEAN_MOTION":14.14661459,"ECCENTRICITY":0.00084576,"INCLINATION":98.5065,"RA_OF_ASC_NODE":67.2247,"ARG_OF_PERICENTER":300.3025,"MEAN_ANOMALY":59.7312,"EPHEMERIS_TYPE":0,"CLASSIFICATION_TYPE":"U","NORAD_CAT_ID":23455,"ELEMENT_SET_NO":999,"REV_AT_EPOCH":61274,"BSTAR":7.1969782e-5,"MEAN_MOTION_DOT":9.7e-7,"MEAN_MOTION_DDOT":0},{"OBJECT_NAME":"NOAA 15","OBJECT_ID":"1998-030A","EPOCH":"2026-04-04T05:15:40.509504","MEAN_MOTION":14.27123532,"ECCENTRICITY":0.00098788,"INCLINATION":98.5132,"RA_OF_ASC_NODE":116.8308,"ARG_OF_PERICENTER":197.8432,"MEAN_ANOMALY":162.2404,"EPHEMERIS_TYPE":0,"CLASSIFICATION_TYPE":"U","NORAD_CAT_ID":25338,"ELEMENT_SET_NO":999,"REV_AT_EPOCH":45074,"BSTAR":0.00011744446,"MEAN_MOTION_DOT":2.44e-6,"MEAN_MOTION_DDOT":0},{"OBJECT_NAME":"NOAA 16","OBJECT_ID":"2000-055A","EPOCH":"2026-04-04T05:10:16.315968","MEAN_MOTION":14.13905804,"ECCENTRICITY":0.00110267,"INCLINATION":98.4679,"RA_OF_ASC_NODE":112.386,"ARG_OF_PERICENTER":148.4173,"MEAN_ANOMALY":211.7665,"EPHEMERIS_TYPE":0,"CLASSIFICATION_TYPE":"U","NORAD_CAT_ID":26536,"ELEMENT_SET_NO":999,"REV_AT_EPOCH":61327,"BSTAR":0.0001010302,"MEAN_MOTION_DOT":1.51e-6,"MEAN_MOTION_DDOT":0}]
