NOAA 1                  
1 04793U 70106A   26094.09717035 -.00000033  00000+0  56231-4 0  9997
2 04793 101.3458 132.0504 0032054 131.4764 291.4511 12.54049723531405
NOAA 2 (ITOS-D)         
1 06235U 72082A   26094.03430575 -.00000027  00000+0  12570-3 0  9990
2 06235 102.0140 111.7793 0003735 314.9732  71.6341 12.53212776445665
NOAA 3                  
1 06920U 73086A   26093.91569274 -.00000039  00000+0  51473-4 0  9990
2 06920 102.2890 107.1399 0006185 260.7953 159.7835 12.40392492372694
NOAA 4                  
1 07529U 74089A   26094.02212321 -.00000038  00000+0  52465-4 0  9992
2 07529 102.0060 106.0253 0008839 340.6538  81.8638 12.53202310350234
NOAA 5                  
1 09057U 76077A   26094.20621826 -.00000037  00000+0  71575-4 0  9995
2 09057 102.2991  79.8513 0010081 114.1829 255.9346 12.37829301245322
TIROS N                 
1 11060U 78096A   26094.04884753  .00000266  00000+0  14600-3 0  9995
2 11060  98.4599 118.4405 0011637  97.2827 262.9673 14.19350552668235
NOAA 6                  
1 11416U 79057A   26094.06359086  .00000510  00000+0  19280-3 0  9997
2 11416  98.5709 124.0593 0010965 115.6583 244.5737 14.35454189440326
NOAA 7                  
1 12553U 81059A   26094.20847018  .00000100  00000+0  70830-4 0  9992
2 12553  98.8010 162.0369 0012436 117.9636 242.2799 14.17778966314267
NOAA 8                  
1 13923U 83022A   26094.02746936  .00000243  00000+0  11194-3 0  9998
2 13923  98.7360 106.9083 0015834 114.0126 246.2715 14.29777560240478
NOAA 9                  
1 15427U 84123A   26094.06448883  .00000174  00000+0  10952-3 0  9990
2 15427  99.1064 118.9619 0014412 196.0437 222.4143 14.17048006132923
NOAA 10                 
1 16969U 86073A   26093.95658770  .00000226  00000+0  10675-3 0  9993
2 16969  98.7023  87.3037 0011442 208.7502 205.7682 14.29155080 58813
NOAA 11                 
1 19531U 88089A   26093.87442581  .00000122  00000+0  83722-4 0  9991
2 19531  98.6136  42.0716 0011579 146.6082 213.5825 14.15826843936965
NOAA 12                 
1 21263U 91032A   26094.21086054  .00000166  00000+0  86527-4 0  9990
2 21263  98.6180  83.8197 0012592 242.5200 117.4701 14.26726275814419
NOAA 13                 
1 22739U 93050A   26094.27169247  .00000190  00000+0  12343-3 0  9994
2 22739  98.6974  41.3111 0009254 347.5417  12.5526 14.13645454682936
NOAA 14                 
1 23455U 94089A   26094.21495709  .00000097  00000+0  71970-4 0  9990
2 23455  98.5065  67.2247 0008457 300.3025  59.7312 14.14661459612747
NOAA 15                 
1 25338U 98030A   26094.21921886  .00000244  00000+0  11744-3 0  9998
2 25338  98.5132 116.8308 0009878 197.8432 162.2404 14.27123532450743
NOAA 16                 
1 26536U 00055A   26094.21546662  .00000151  00000+0  10103-3 0  9999
2 26536  98.4679 112.3860 0011026 148.4173 211.7665 14.13905804613278
